GLOBALSTAR M024 [-]     
1 25883U 99043A   23320.76594892 -.00000010  00000+0  19315-2 0  9993
2 25883  52.0022 245.7244 0000554 220.4447 150.7162 11.10158598 50628
GLOBALSTAR M027 [-]     
1 25884U 99043B   23320.93928732 -.00000061  00000+0  81465-4 0  9990
2 25884  52.0227 306.9390 0021200 136.7782 223.4679 11.04365437 77355
GLOBALSTAR M054 [-]     
1 25885U 99043C   23320.88799713 -.00000076  00000+0 -12473-3 0  9999
2 25885  52.0114 171.3952 0003498 252.7120 120.3620 11.39202054 53148
GLOBALSTAR M053 [-]     
1 25886U 99043D   23320.40935125 -.00000075  00000+0 -19368-3 0  9996
2 25886  51.9973  87.5258 0003903 166.9886 226.5226 11.27652312 54159
GLOBALSTAR M058 [-]     
1 25907U 99049A   23320.95062880 -.00000036  00000+0  64923-3 0  9998
2 25907  51.9934 213.1775 0001581 228.0727 131.9973 11.93169592472513
GLOBALSTAR M050 [-]     
1 25908U 99049B   23321.13717735 -.00000067  00000+0  23980-3 0  9998
2 25908  51.9994 263.5392 0009039 324.6982  48.5176 12.07423381 83090
GLOBALSTAR M033 [-]     
1 25909U 99049C   23320.89918510 -.00000104  00000+0 -12013-3 0  9993
2 25909  51.9897 175.9681 0011785 159.5790 200.5531 12.20259041465143
GLOBALSTAR M055 [-]     
1 25910U 99049D   23320.95766459 -.00000043  00000+0  44261-3 0  9996
2 25910  52.0011 214.6891 0007600  17.3986 342.7125 12.29390815 97387
